STARLINK-34575          
1 64859U 25152T   25300.18054737  .00001112  00000+0  81260-4 0  9997
2 64859  97.6021 153.9899 0002607  87.9565 272.1961 15.05649260 15336
STARLINK-34570          
1 64860U 25152U   25300.15911016  .00003462  00000+0  26815-3 0  9992
2 64860  97.6034 154.1759 0000944  95.6993 264.4339 15.02075448 15345
STARLINK-34651          
1 64861U 25152V   25300.22201437  .00000969  00000+0  78294-4 0  9998
2 64861  97.6036 155.0229 0001374  85.3185 274.8197 15.02072666 15400
STARLINK-34684          
1 64862U 25152W   25300.16681465  .00002063  00000+0  16168-3 0  9993
2 64862  97.6028 154.1643 0000961 155.8066 204.3204 15.02063509 15340
STARLINK-34690          
1 64863U 25152X   25300.18136412  .00006016  00000+0  46260-3 0  9991
2 64863  97.6024 154.1464 0004104  61.5970 298.5668 15.02067838 15346
STARLINK-34628          
1 64864U 25152Y   25300.13624936  .00003650  00000+0  25708-3 0  9995
2 64864  97.6035 153.8957 0002309  85.6090 274.5401 15.05644549 15327
STARLINK-34544          
1 64865U 25152Z   25300.19438921  .00004244  00000+0  29808-3 0  9994
2 64865  97.6025 153.9702 0002497  88.4081 271.7432 15.05657588 15336
STARLINK-34647          
1 64904U 25157A   25300.18878356  .00083332  00000+0  20701-2 0  9999
2 64904  53.1595 252.9158 0001202 100.4823 259.6317 15.39627561 15585
STARLINK-34273          
1 64905U 25157B   25300.15627552  .00057272  00000+0  14308-2 0  9997
2 64905  53.1592 252.7078 0001142  88.9594 271.1542 15.39626106 15594
STARLINK-34713          
1 64906U 25157C   25300.17485219  .00045614  00000+0  11432-2 0  9994
2 64906  53.1590 252.8272 0001116 100.1051 260.0080 15.39629342 15539
STARLINK-34712          
1 64907U 25157D   25300.16556247  .00041412  00000+0  10386-2 0  9993
2 64907  53.1588 252.7678 0001095  85.2794 274.8335 15.39650554 15589
STARLINK-34702          
1 64908U 25157E   25300.14234667  .00063916  00000+0  15923-2 0  9996
2 64908  53.1596 252.6204 0001338  96.4066 263.7091 15.39662362 15585
STARLINK-34687          
1 64909U 25157F   25300.13305900  .00050751  00000+0  12685-2 0  9990
2 64909  53.1602 252.5615 0002746  92.2359 267.8961 15.39661905 15530
STARLINK-34642          
1 64910U 25157G   25300.19341408  .00007175  00000+0  18913-3 0  9994
2 64910  53.1597 252.9426 0000957  85.4155 274.6959 15.39629262 15587
STARLINK-34718          
1 64911U 25157H   25300.05430564  .00081870  00000+0  20302-2 0  9990
2 64911  53.1598 253.4968 0001351 121.9218 238.1919 15.39689792 15564
STARLINK-34711          
1 64912U 25157J   25300.17949134  .00044083  00000+0  11051-2 0  9998
2 64912  53.1594 252.8548 0001121  77.4048 282.7082 15.39636544 15584
