[{"OBJECT_NAME":"STARLINK-34575","OBJECT_ID":"2025-152T","EPOCH":"2025-10-27T04:19:59.292768","MEAN_MOTION":15.0564926,"ECCENTRICITY":0.00026074,"INCLINATION":97.6021,"RA_OF_ASC_NODE":153.9899,"ARG_OF_PERICENTER":87.9565,"MEAN_ANOMALY":272.1961,"EPHEMERIS_TYPE":0,"CLASSIFICATION_TYPE":"U","NORAD_CAT_ID":64859,"ELEMENT_SET_NO":999,"REV_AT_EPOCH":1533,"BSTAR":8.1259608e-5,"MEAN_MOTION_DOT":1.112e-5,"MEAN_MOTION_DDOT":0},{"OBJECT_NAME":"STARLINK-34570","OBJECT_ID":"2025-152U","EPOCH":"2025-10-27T03:49:07.117824","MEAN_MOTION":15.02075448,"ECCENTRICITY":9.446e-5,"INCLINATION":97.6034,"RA_OF_ASC_NODE":154.1759,"ARG_OF_PERICENTER":95.6993,"MEAN_ANOMALY":264.4339,"EPHEMERIS_TYPE":0,"CLASSIFICATION_TYPE":"U","NORAD_CAT_ID":64860,"ELEMENT_SET_NO":999,"REV_AT_EPOCH":1534,"BSTAR":0.00026815128,"MEAN_MOTION_DOT":3.462e-5,"MEAN_MOTION_DDOT":0},{"OBJECT_NAME":"STARLINK-34651","OBJECT_ID":"2025-152V","EPOCH":"2025-10-27T05:19:42.041568","MEAN_MOTION":15.02072666,"ECCENTRICITY":0.00013745,"INCLINATION":97.6036,"RA_OF_ASC_NODE":155.0229,"ARG_OF_PERICENTER":85.3185,"MEAN_ANOMALY":274.8197,"EPHEMERIS_TYPE":0,"CLASSIFICATION_TYPE":"U","NORAD_CAT_ID":64861,"ELEMENT_SET_NO":999,"REV_AT_EPOCH":1540,"BSTAR":7.8294351e-5,"MEAN_MOTION_DOT":9.69e-6,"MEAN_MOTION_DDOT":0},{"OBJECT_NAME":"STARLINK-34684","OBJECT_ID":"2025-152W","EPOCH":"2025-10-27T04:00:12.785760","MEAN_MOTION":15.02063509,"ECCENTRICITY":9.611e-5,"INCLINATION":97.6028,"RA_OF_ASC_NODE":154.1643,"ARG_OF_PERICENTER":155.8066,"MEAN_ANOMALY":204.3204,"EPHEMERIS_TYPE":0,"CLASSIFICATION_TYPE":"U","NORAD_CAT_ID":64862,"ELEMENT_SET_NO":999,"REV_AT_EPOCH":1534,"BSTAR":0.00016168292,"MEAN_MOTION_DOT":2.063e-5,"MEAN_MOTION_DDOT":0},{"OBJECT_NAME":"STARLINK-34690","OBJECT_ID":"2025-152X","EPOCH":"2025-10-27T04:21:09.859968","MEAN_MOTION":15.02067838,"ECCENTRICITY":0.00041041,"INCLINATION":97.6024,"RA_OF_ASC_NODE":154.1464,"ARG_OF_PERICENTER":61.597,"MEAN_ANOMALY":298.5668,"EPHEMERIS_TYPE":0,"CLASSIFICATION_TYPE":"U","NORAD_CAT_ID":64863,"ELEMENT_SET_NO":999,"REV_AT_EPOCH":1534,"BSTAR":0.00046259631,"MEAN_MOTION_DOT":6.016e-5,"MEAN_MOTION_DDOT":0},{"OBJECT_NAME":"STARLINK-34628","OBJECT_ID":"2025-152Y","EPOCH":"2025-10-27T03:16:11.944704","MEAN_MOTION":15.05644549,"ECCENTRICITY":0.00023091,"INCLINATION":97.6035,"RA_OF_ASC_NODE":153.8957,"ARG_OF_PERICENTER":85.609,"MEAN_ANOMALY":274.5401,"EPHEMERIS_TYPE":0,"CLASSIFICATION_TYPE":"U","NORAD_CAT_ID":64864,"ELEMENT_SET_NO":999,"REV_AT_EPOCH":1532,"BSTAR":0.0002570813,"MEAN_MOTION_DOT":3.65e-5,"MEAN_MOTION_DDOT":0},{"OBJECT_NAME":"STARLINK-34544","OBJECT_ID":"2025-152Z","EPOCH":"2025-10-27T04:39:55.227744","MEAN_MOTION":15.05657588,"ECCENTRICITY":0.00024975,"INCLINATION":97.6025,"RA_OF_ASC_NODE":153.9702,"ARG_OF_PERICENTER":88.4081,"MEAN_ANOMALY":271.7432,"EPHEMERIS_TYPE":0,"CLASSIFICATION_TYPE":"U","NORAD_CAT_ID":64865,"ELEMENT_SET_NO":999,"REV_AT_EPOCH":1533,"BSTAR":0.00029808243,"MEAN_MOTION_DOT":4.244e-5,"MEAN_MOTION_DDOT":0},{"OBJECT_NAME":"STARLINK-34647","OBJECT_ID":"2025-157A","EPOCH":"2025-10-27T04:31:50.899584","MEAN_MOTION":15.39627561,"ECCENTRICITY":0.00012025,"INCLINATION":53.1595,"RA_OF_ASC_NODE":252.9158,"ARG_OF_PERICENTER":100.4823,"MEAN_ANOMALY":259.6317,"EPHEMERIS_TYPE":0,"CLASSIFICATION_TYPE":"U","NORAD_CAT_ID":64904,"ELEMENT_SET_NO":999,"REV_AT_EPOCH":1558,"BSTAR":0.0020700609,"MEAN_MOTION_DOT":0.00083332,"MEAN_MOTION_DDOT":0},{"OBJECT_NAME":"STARLINK-34273","OBJECT_ID":"2025-157B","EPOCH":"2025-10-27T03:45:02.204928","MEAN_MOTION":15.39626106,"ECCENTRICITY":0.00011429,"INCLINATION":53.1592,"RA_OF_ASC_NODE":252.7078,"ARG_OF_PERICENTER":88.9594,"MEAN_ANOMALY":271.1542,"EPHEMERIS_TYPE":0,"CLASSIFICATION_TYPE":"U","NORAD_CAT_ID":64905,"ELEMENT_SET_NO":999,"REV_AT_EPOCH":1559,"BSTAR":0.0014307534,"MEAN_MOTION_DOT":0.00057272,"MEAN_MOTION_DDOT":0},{"OBJECT_NAME":"STARLINK-34713","OBJECT_ID":"2025-157C","EPOCH":"2025-10-27T04:11:47.229216","MEAN_MOTION":15.39629342,"ECCENTRICITY":0.00011166,"INCLINATION":53.159,"RA_OF_ASC_NODE":252.8272,"ARG_OF_PERICENTER":100.1051,"MEAN_ANOMALY":260.008,"EPHEMERIS_TYPE":0,"CLASSIFICATION_TYPE":"U","NORAD_CAT_ID":64906,"ELEMENT_SET_NO":999,"REV_AT_EPOCH":1553,"BSTAR":0.0011431597,"MEAN_MOTION_DOT":0.00045614,"MEAN_MOTION_DDOT":0},{"OBJECT_NAME":"STARLINK-34712","OBJECT_ID":"2025-157D","EPOCH":"2025-10-27T03:58:24.597408","MEAN_MOTION":15.39650554,"ECCENTRICITY":0.0001095,"INCLINATION":53.1588,"RA_OF_ASC_NODE":252.7678,"ARG_OF_PERICENTER":85.2794,"MEAN_ANOMALY":274.8335,"EPHEMERIS_TYPE":0,"CLASSIFICATION_TYPE":"U","NORAD_CAT_ID":64907,"ELEMENT_SET_NO":999,"REV_AT_EPOCH":1558,"BSTAR":0.0010386264,"MEAN_MOTION_DOT":0.00041412,"MEAN_MOTION_DDOT":0},{"OBJECT_NAME":"STARLINK-34702","OBJECT_ID":"2025-157E","EPOCH":"2025-10-27T03:24:58.752288","MEAN_MOTION":15.39662362,"ECCENTRICITY":0.0001338,"INCLINATION":53.1596,"RA_OF_ASC_NODE":252.6204,"ARG_OF_PERICENTER":96.4066,"MEAN_ANOMALY":263.7091,"EPHEMERIS_TYPE":0,"CLASSIFICATION_TYPE":"U","NORAD_CAT_ID":64908,"ELEMENT_SET_NO":999,"REV_AT_EPOCH":1558,"BSTAR":0.0015923062,"MEAN_MOTION_DOT":0.00063916,"MEAN_MOTION_DDOT":0},{"OBJECT_NAME":"STARLINK-34687","OBJECT_ID":"2025-157F","EPOCH":"2025-10-27T03:11:36.297600","MEAN_MOTION":15.39661905,"ECCENTRICITY":0.00027466,"INCLINATION":53.1602,"RA_OF_ASC_NODE":252.5615,"ARG_OF_PERICENTER":92.2359,"MEAN_ANOMALY":267.8961,"EPHEMERIS_TYPE":0,"CLASSIFICATION_TYPE":"U","NORAD_CAT_ID":64909,"ELEMENT_SET_NO":999,"REV_AT_EPOCH":1553,"BSTAR":0.001268498,"MEAN_MOTION_DOT":0.00050751,"MEAN_MOTION_DDOT":0},{"OBJECT_NAME":"STARLINK-34642","OBJECT_ID":"2025-157G","EPOCH":"2025-10-27T04:38:30.976512","MEAN_MOTION":15.39629262,"ECCENTRICITY":9.576e-5,"INCLINATION":53.1597,"RA_OF_ASC_NODE":252.9426,"ARG_OF_PERICENTER":85.4155,"MEAN_ANOMALY":274.6959,"EPHEMERIS_TYPE":0,"CLASSIFICATION_TYPE":"U","NORAD_CAT_ID":64910,"ELEMENT_SET_NO":999,"REV_AT_EPOCH":1558,"BSTAR":0.00018913192,"MEAN_MOTION_DOT":7.175e-5,"MEAN_MOTION_DDOT":0},{"OBJECT_NAME":"STARLINK-34718","OBJECT_ID":"2025-157H","EPOCH":"2025-10-27T01:18:12.007296","MEAN_MOTION":15.39689792,"ECCENTRICITY":0.00013513,"INCLINATION":53.1598,"RA_OF_ASC_NODE":253.4968,"ARG_OF_PERICENTER":121.9218,"MEAN_ANOMALY":238.1919,"EPHEMERIS_TYPE":0,"CLASSIFICATION_TYPE":"U","NORAD_CAT_ID":64911,"ELEMENT_SET_NO":999,"REV_AT_EPOCH":1556,"BSTAR":0.0020301598,"MEAN_MOTION_DOT":0.0008187,"MEAN_MOTION_DDOT":0},{"OBJECT_NAME":"STARLINK-34711","OBJECT_ID":"2025-157J","EPOCH":"2025-10-27T04:18:28.051776","MEAN_MOTION":15.39636544,"ECCENTRICITY":0.00011215,"INCLINATION":53.1594,"RA_OF_ASC_NODE":252.8548,"ARG_OF_PERICENTER":77.4048,"MEAN_ANOMALY":282.7082,"EPHEMERIS_TYPE":0,"CLASSIFICATION_TYPE":"U","NORAD_CAT_ID":64912,"ELEMENT_SET_NO":999,"REV_AT_EPOCH":1558,"BSTAR":0.0011050935,"MEAN_MOTION_DOT":0.00044083,"MEAN_MOTION_DDOT":0}]
